#Pass ID: 20250115_035233_FENGYUN 3G
#Satellite: FENGYUN 3G
#Configuration: FENGYUN 3G
#Start time: 2025-01-15 03:52:38.598117

#LorettStation: 1.0.0 05.05.2024
#Station: Regia
#Location: 37.494653 lon 55.929028 lat
#TLE: 1 56232U 23055A   25013.92647212  .00042031  00000+0  63868-3 0  9990
#TLE: 2 56232  49.9950 143.7557 0028722 206.8569 153.0913 15.53615516 99294

#Time	Az	El	Level	SNR
#Closed at: 2025-01-15 03:52:33.599764